STARLINK-5453           
1 54773U 22175R   26068.31127291  .00000219  00000+0  31872-4 0  9997
2 54773  53.2184  45.6945 0001168  86.0946 274.0179 15.08813529179866
DISKSAT A               
1 67222U 25305D   26068.54789610  .00013824  00000+0  90452-3 0  9996
2 67222  45.0023 251.6019 0004082 318.1929  41.8634 15.07741062 12266
